GSAT0218 (GALILEO 22)   
1 43058U 17079D   26094.25169759 -.00000008  00000+0  00000+0 0  9996
2 43058  55.0970 223.5349 0002545 284.3710  75.5576  1.70474764 51750
GOES 17                 
1 43226U 18022A   26095.13378222 -.00000181  00000+0  00000+0 0  9999
2 43226   0.7501  86.7952 0001192 259.4298 165.8761  1.00271613 29692
GSAT0221 (GALILEO 25)   
1 43564U 18060A   26090.04924982 -.00000099  00000+0  00000+0 0  9999
2 43564  57.1934 343.8925 0004721 315.0021  45.0002  1.70475638 47837
GSAT0222 (GALILEO 26)   
1 43565U 18060B   26093.20172289 -.00000096  00000+0  00000+0 0  9993
2 43565  57.1971 343.8104 0002935 285.5245  74.4895  1.70475247 47935
GSAT0219 (GALILEO 23)   
1 43566U 18060C   26094.59589508 -.00000094  00000+0  00000+0 0  9991
2 43566  57.1954 343.7746 0004031 327.6445  32.3780  1.70475577 47939
GSAT0220 (GALILEO 24)   
1 43567U 18060D   26092.47048715 -.00000097  00000+0  00000+0 0  9990
2 43567  57.1953 343.8319 0004601 318.6748  41.3360  1.70475758 47884
BEIDOU-3 M13            
1 43622U 18072A   26094.97289470 -.00000039  00000+0  00000+0 0  9993
2 43622  56.5630  65.0735 0009111 313.8269  46.0701  1.86231084 51292
BEIDOU-3 M14            
1 43623U 18072B   26094.83834227 -.00000040  00000+0  00000+0 0  9997
2 43623  56.5647  65.0721 0006906 335.0307  24.9080  1.86231146 51287
GPS BIII-1              
1 43873U 18109A   26094.46283441  .00000007  00000+0  00000+0 0  9992
2 43873  55.6365  95.0933 0037991 198.8846 333.1225  2.00558402 53596
METEOR-M2 2             
1 44387U 19038A   26095.25836645  .00000255  00000+0  12998-3 0  9991
2 44387  98.9119  81.4825 0000680 165.1792 194.9406 14.24345453350914
GPS BIII-2              
1 44506U 19056A   26095.09796293 -.00000090  00000+0  00000+0 0  9995
2 44506  55.6701 334.0490 0058764 197.6004 334.4346  2.00569081 48601
BEIDOU-3 M24            
1 44542U 19061A   26094.67962578  .00000015  00000+0  00000+0 0  9991
2 44542  54.3962 185.2068 0008113  12.5163 347.5468  1.86229007 44427
BEIDOU-3 M23            
1 44543U 19061B   26092.15889837  .00000005  00000+0  00000+0 0  9998
2 44543  54.3946 185.2604 0004867 359.4431  22.6796  1.86227494 44387
BEIDOU-3 M22            
1 44793U 19078A   26094.51853862 -.00000061  00000+0  00000+0 0  9997
2 44793  54.0029 302.4189 0007558  42.6264 317.4505  1.86227241 43279
BEIDOU-3 M21            
1 44794U 19078B   26093.58474245 -.00000063  00000+0  00000+0 0  9990
2 44794  53.9768 302.4147 0005354  38.8071 321.2518  1.86227660 43268
ELEKTRO-L 3             
1 44903U 19095A   26094.97564484 -.00000095  00000+0  00000+0 0  9995
2 44903   0.0753  61.4371 0001391 306.4789 252.5355  1.00272372 22971
GPS BIII-3              
1 45854U 20041A   26094.69425007 -.00000089  00000+0  00000+0 0  9993
2 45854  56.6255  31.7951 0061789 205.1546 336.5424  2.00560344 42565
